METEOSAT-9 (MSG-2)      
1 28912U 05049B   23364.84343427  .00000134  00000+0  00000+0 0  9999
2 28912   7.2975  62.2618 0001298 219.7832 166.3400  1.00276222 66061
EWS-G1 (GOES 13)        
1 29155U 06018A   23365.50558115 -.00000002  00000+0  00000+0 0  9997
2 29155   2.1849  87.2797 0087628 247.6588 146.7038  0.99157086 34369
DMSP 5D-3 F17 (USA 191) 
1 29522U 06050A   24001.10896847  .00000176  00000+0  11469-3 0  9998
2 29522  98.7491  15.1282 0010937  98.5388 261.7025 14.14364318885436
FENGYUN 3A              
1 32958U 08026A   23365.86682709  .00000178  00000+0  10555-3 0  9992
2 32958  98.5838 313.0630 0008330 191.6710 168.4274 14.18986789808082
FENGYUN 2E              
1 33463U 08066A   23365.83794168 -.00000190  00000+0  00000+0 0  9993
2 33463   7.1670  61.5599 0001984 260.2996 166.2347  1.00265712 55095
NOAA 19                 
1 33591U 09005A   24001.12088953  .00000203  00000+0  13378-3 0  9997
2 33591  99.0737  54.9563 0014461  48.8665 311.3752 14.12897135767893
GOES 14                 
1 35491U 09033A   24001.17801591 -.00000050  00000+0  00000+0 0  9990
2 35491   0.1161 246.6927 0000458   5.3176 163.8049  1.00272543 53157
DMSP 5D-3 F18 (USA 210) 
1 35951U 09057A   24001.14102441  .00000332  00000+0  19767-3 0  9998
2 35951  98.7939 338.9590 0010203 287.7756  72.2303 14.13952193732619
EWS-G2 (GOES 15)        
1 36411U 10008A   23364.91818685  .00000050  00000+0  00000+0 0  9991
2 36411   0.1246 268.2982 0006222 353.5246 229.1511  1.00275254 50627
COMS 1                  
1 36744U 10032A   23365.84699231 -.00000331  00000+0  00000+0 0  9997
2 36744   2.5067  86.9455 0001021 195.6252 250.5452  1.00272332 42084
FENGYUN 3B              
1 37214U 10059A   24001.20288059  .00000099  00000+0  75502-4 0  9993
2 37214  99.0720  26.8149 0021794 205.0098 197.2533 14.14424527680506
SUOMI NPP               
1 37849U 11061A   24001.14864421  .00000140  00000+0  87062-4 0  9998
2 37849  98.7256 301.6620 0001484  74.2536 285.8804 14.19536741631020
FENGYUN 2F              
1 38049U 12002A   23365.76942286 -.00000346  00000+0  00000+0 0  9994
2 38049   5.1751  74.7898 0001598  40.2289  13.7681  1.00281976 43878
METEOSAT-10 (MSG-3)     
1 38552U 12035B   23364.90600366  .00000004  00000+0  00000+0 0  9994
2 38552   2.5907  59.2928 0001149 221.8607 144.0641  1.00271491 41846
METOP-B                 
1 38771U 12049A   24001.15639331  .00000152  00000+0  89149-4 0  9992
2 38771  98.6537  61.9524 0001519 119.2430 240.8899 14.21446590585676
FENGYUN 3C              
1 39260U 13052A   24001.15411566  .00000109  00000+0  75803-4 0  9993
2 39260  98.4266   9.7040 0012234  91.8782 268.3794 14.16126316531542
METEOR-M 2              
1 40069U 14037A   24001.08594493  .00000142  00000+0  84721-4 0  9995
2 40069  98.4292   2.9221 0006712 121.3474 238.8362 14.20864861491757
HIMAWARI-8              
1 40267U 14060A   23365.85487522 -.00000261  00000+0  00000+0 0  9998
2 40267   0.0182 199.6419 0001199  81.4265 267.3562  1.00272580 33751
FENGYUN 2G              
1 40367U 14090A   23365.81741303 -.00000291  00000+0  00000+0 0  9991
2 40367   3.3586  83.4715 0000696  26.1439  24.3060  1.00277975 32997
METEOSAT-11 (MSG-4)     
1 40732U 15034A   23364.90791816  .00000078  00000+0  00000+0 0  9991
2 40732   0.9878  62.6636 0002271 223.4606 149.4220  1.00280306 31000
ELEKTRO-L 2             
1 41105U 15074A   23364.90313191 -.00000106  00000+0  00000+0 0  9999
2 41105   4.4094  81.5015 0003624 190.1505 138.0722  1.00272712 29488
HIMAWARI-9              
1 41836U 16064A   23365.85487521 -.00000261  00000+0  00000+0 0  9996
2 41836   0.0186  89.7294 0001077 201.0604 257.7297  1.00270665 26190
GOES 16                 
1 41866U 16071A   23365.41377667 -.00000234  00000+0  00000+0 0  9998
2 41866   0.0797 251.5420 0001411  60.5015 221.2660  1.00270424 26099
FENGYUN 4A              
1 41882U 16077A   23365.81939501 -.00000315  00000+0  00000+0 0  9997
2 41882   0.0477  30.9993 0005650   3.7356 104.7962  1.00267475 25925
CYGFM05                 
1 41884U 16078A   23365.90845657  .00006396  00000+0  26344-3 0  9995
2 41884  34.9550 283.3405 0011143 107.4722 252.7211 15.23369562390375
CYGFM04                 
1 41885U 16078B   23365.86022219  .00006714  00000+0  27007-3 0  9993
2 41885  34.9475 269.2062 0009983 131.5055 228.6517 15.24160437390440
CYGFM02                 
1 41886U 16078C   23365.90724356  .00006431  00000+0  25850-3 0  9990
2 41886  34.9554 271.3756 0010028 123.5705 236.5968 15.24196355390534
CYGFM01                 
1 41887U 16078D   23365.92561532  .00006132  00000+0  25456-3 0  9998
2 41887  34.9514 286.6636 0011445 106.3687 253.8286 15.23109246390312
CYGFM08                 
1 41888U 16078E   23365.77424464  .00006831  00000+0  27787-3 0  9999
2 41888  34.9479 277.1959 0010577 123.4162 236.7565 15.23775809390458
CYGFM07                 
1 41890U 16078G   23365.86079860  .00006728  00000+0  26992-3 0  9990
2 41890  34.9501 268.7312 0009551 128.7716 231.3853 15.24251637390459
CYGFM03                 
1 41891U 16078H   24001.08463051  .00006215  00000+0  24993-3 0  9992
2 41891  34.9524 268.3533 0008680 128.7731 231.3760 15.24196740390624
FENGYUN 3D              
1 43010U 17072A   24001.10185680  .00000146  00000+0  91232-4 0  9992
2 43010  98.8893 314.9919 0002528  91.9103 268.2362 14.19260977317579
NOAA 20                 
1 43013U 17073A   24001.11326541  .00000115  00000+0  75154-4 0  9991
2 43013  98.7336 301.5679 0000701  62.1238 298.0009 14.19556794317055
GOES 17                 
1 43226U 18022A   23365.52300811 -.00000077  00000+0  00000+0 0  9992
2 43226   0.0444 191.4229 0001953  73.1771 278.6856  1.00272242 21413
FENGYUN 2H              
1 43491U 18050A   23365.86239135 -.00000116  00000+0  00000+0 0  9998
2 43491   0.7069  88.3070 0000478  11.5637  29.9506  1.00273898 20431
METOP-C                 
1 43689U 18087A   24001.12402528  .00000159  00000+0  92583-4 0  9990
2 43689  98.7056  62.6687 0002478 179.4900 180.6281 14.21487847267246
GEO-KOMPSAT-2A          
1 43823U 18100A   23365.84751468 -.00000329  00000+0  00000+0 0  9995
2 43823   0.0465 145.6426 0000320 244.0410 143.6752  1.00270638 18627
METEOR-M2 2             
1 44387U 19038A   24001.13255645  .00000109  00000+0  67332-4 0  9999
2 44387  98.8048 329.9111 0002348  86.3377 273.8069 14.23838383233479
ARKTIKA-M 1             
1 47719U 21016A   23364.76886918  .00000173  00000+0  00000+0 0  9998
2 47719  63.1448 170.8779 6897000 269.1355  18.1347  2.00603108 20754
FENGYUN 3E              
1 49008U 21062A   24001.12316129  .00000028  00000+0  33801-4 0  9992
2 49008  98.7286   4.6958 0002214 129.4486 230.6886 14.19719611129148
GOES 18                 
1 51850U 22021A   24001.10945852  .00000112  00000+0  00000+0 0  9999
2 51850   0.0171 177.3619 0000464  72.7426 112.5674  1.00273167  6803
NOAA 21 (JPSS-2)        
1 54234U 22150A   23365.84804158  .00000151  00000+0  92359-4 0  9993
2 54234  98.7371 300.8570 0000726  99.0530 261.0728 14.19553350 59094
METEOSAT-12 (MTG-I1)    
1 54743U 22170C   23364.90530748 -.00000020  00000+0  00000+0 0  9990
2 54743   0.4021 348.1183 0001915 267.9248 165.3789  1.00271062  3960
METEOR-M2 3             
1 57166U 23091A   24001.16920975  .00000014  00000+0  25338-4 0  9995
2 57166  98.7393  57.1439 0003006 251.3464 108.7388 14.23863272 26718
FENGYUN 3F              
1 57490U 23111A   24001.15364420  .00000104  00000+0  70110-4 0  9992
2 57490  98.7924  71.6827 0001018 144.9637 215.1606 14.19749642 21428
STARLINK-30947          
1 58473U 23186A   23365.91667824  .00027434  00000+0  10553-2 0  9994
2 58473  42.9997  97.5634 0001446 280.8084 317.5361 15.25890604  5537
STARLINK-30995          
1 58474U 23186B   23365.91667824 -.00110384  00000+0 -42735-2 0  9991
2 58474  42.9997  97.5330 0000937 251.7273 359.2247 15.25910139  5624
STARLINK-30941          
1 58475U 23186C   23365.91667824  .00022846  00000+0  88128-3 0  9992
2 58475  42.9999  97.5027 0001363 258.3389   4.9048 15.25879853  5580
STARLINK-30980          
1 58476U 23186D   23365.91667824  .00015964  00000+0  61914-3 0  9990
2 58476  42.9998  97.4727 0001595 280.1502 355.5237 15.25892087  5627
STARLINK-30965          
1 58477U 23186E   24001.25001157 -.01707248  00000+0 -30389-1 0  9993
2 58477  42.9995  91.0734 0001717 265.6394  83.7965 15.52510333  5636
STARLINK-30990          
1 58478U 23186F   23365.91667824  .00024645  00000+0  94916-3 0  9996
2 58478  43.0000  97.4420 0001445 283.4600   4.6145 15.25898799  5721
STARLINK-30974          
1 58479U 23186G   23365.91667824 -.00197137  21393-4 -49143-3 0  9991
2 58479  42.9981  90.2280 0002121 299.1466  20.6762 15.94609363  5837
STARLINK-30984          
1 58480U 23186H   24001.25001157  .00035638  00000+0  13669-2 0  9994
2 58480  42.9998  95.1383 0001939 284.9396 210.5987 15.25878823  5590
STARLINK-30956          
1 58481U 23186J   23365.65693953  .00007156  00000+0  60596-4 0  9999
2 58481  42.9986  95.2318 0001366 258.5878 101.4836 15.70278293  5588
STARLINK-30997          
1 58482U 23186K   23365.91667824 -.00055461  00000+0 -10027-2 0  9993
2 58482  43.0001  96.1083 0001283 276.2454 203.7479 15.48946470  5632
STARLINK-30994          
1 58483U 23186L   23365.63103531  .00074857  00000+0  88105-3 0  9994
2 58483  43.0016  96.8054 0001907 281.4864  78.5786 15.60477935  5559
STARLINK-30991          
1 58484U 23186M   24001.25001157  .00071059  00000+0  27029-2 0  9990
2 58484  42.9999  95.1087 0001337 302.1213 205.7641 15.25876612  5585
STARLINK-30979          
1 58485U 23186N   24001.00001157  .00026510  00000+0  10209-2 0  9998
2 58485  43.0000  96.9111 0001941 256.8633 154.4510 15.25868677  5543
